{"type": "FeatureCollection", "features": [ {"type": "Feature", "properties": {"norad_id": 35045, "name": "COSMOS 2251 DEB", "group": "cosmos-2251-debris", "lat": 7.153866068316571, "lon": -147.4886311628537, "alt_km": 921.1489393164593, "timestamp": "2025-12-22T23:36:21.112631+00:00", "meta": {"OBJECT_NAME": "COSMOS 2251 DEB", "OBJECT_ID": "1993-036AHJ", "EPOCH": "2025-12-20T12:28:28.167744", "MEAN_MOTION": 14.00402013, "ECCENTRICITY": 0.0183906, "INCLINATION": 73.7193, "RA_OF_ASC_NODE": 38.9629, "ARG_OF_PERICENTER": 279.9128, "MEAN_ANOMALY": 78.1289, "EPHEMERIS_TYPE": 0, "CLASSIFICATION_TYPE": "U", "NORAD_CAT_ID": 35045, "ELEMENT_SET_NO": 999, "REV_AT_EPOCH": 84752, "BSTAR": 0.0005282, "MEAN_MOTION_DOT": 8.78e-06, "MEAN_MOTION_DDOT": 0}, "tle": {"line1": "1 35045U 93036AHJ 25354.51977046  .00000878  00000+0  52820-3 0  9998", "line2": "2 35045  73.7193  38.9629 0183906 279.9128  78.1289 14.00402013847527"}}, "geometry": {"type": "Point", "coordinates": [-147.4886311628537, 7.153866068316571]}}, {"type": "Feature", "properties": {"norad_id": 35060, "name": "COSMOS 2251 DEB", "group": "cosmos-2251-debris", "lat": 19.693420826196583, "lon": 39.475803218866545, "alt_km": 764.4458153284149, "timestamp": "2025-12-22T23:36:21.112641+00:00", "meta": {"OBJECT_NAME": "COSMOS 2251 DEB", "OBJECT_ID": "1993-036AHP", "EPOCH": "2025-12-17T09:37:48.798336", "MEAN_MOTION": 14.41611034, "ECCENTRICITY": 0.00186104, "INCLINATION": 74.0362, "RA_OF_ASC_NODE": 235.6937, "ARG_OF_PERICENTER": 321.6138, "MEAN_ANOMALY": 38.3692, "EPHEMERIS_TYPE": 0, "CLASSIFICATION_TYPE": "U", "NORAD_CAT_ID": 35060, "ELEMENT_SET_NO": 999, "REV_AT_EPOCH": 87309, "BSTAR": 0.00026105938, "MEAN_MOTION_DOT": 8.25e-06, "MEAN_MOTION_DDOT": 0}, "tle": {"line1": "1 35060U 93036AHP 25351.40125924  .00000825  00000+0  26106-3 0  9990", "line2": "2 35060  74.0362 235.6937 0018610 321.6138  38.3692 14.41611034873096"}}, "geometry": {"type": "Point", "coordinates": [39.475803218866545, 19.693420826196583]}}, {"type": "Feature", "properties": {"norad_id": 35061, "name": "COSMOS 2251 DEB", "group": "cosmos-2251-debris", "lat": -64.19173351478871, "lon": -110.32459186647098, "alt_km": 680.9381965847333, "timestamp": "2025-12-22T23:36:21.112651+00:00", "meta": {"OBJECT_NAME": "COSMOS 2251 DEB", "OBJECT_ID": "1993-036AHQ", "EPOCH": "2025-12-22T02:39:26.392032", "MEAN_MOTION": 14.67900627, "ECCENTRICITY": 0.00395554, "INCLINATION": 74.0464, "RA_OF_ASC_NODE": 287.6256, "ARG_OF_PERICENTER": 35.8445, "MEAN_ANOMALY": 324.5367, "EPHEMERIS_TYPE": 0, "CLASSIFICATION_TYPE": "U", "NORAD_CAT_ID": 35061, "ELEMENT_SET_NO": 999, "REV_AT_EPOCH": 88712, "BSTAR": 0.00075308745, "MEAN_MOTION_DOT": 4.328e-05, "MEAN_MOTION_DDOT": 0}, "tle": {"line1": "1 35061U 93036AHQ 25356.11072213  .00004328  00000+0  75309-3 0  9997", "line2": "2 35061  74.0464 287.6256 0039555  35.8445 324.5367 14.67900627887122"}}, "geometry": {"type": "Point", "coordinates": [-110.32459186647098, -64.19173351478871]}}, {"type": "Feature", "properties": {"norad_id": 35062, "name": "COSMOS 2251 DEB", "group": "cosmos-2251-debris", "lat": 43.140655105722985, "lon": -120.63506214469969, "alt_km": 769.0125451065487, "timestamp": "2025-12-22T23:36:21.112661+00:00", "meta": {"OBJECT_NAME": "COSMOS 2251 DEB", "OBJECT_ID": "1993-036AHR", "EPOCH": "2025-12-20T22:03:28.302048", "MEAN_MOTION": 14.22993492, "ECCENTRICITY": 0.0126453, "INCLINATION": 74.0793, "RA_OF_ASC_NODE": 78.5797, "ARG_OF_PERICENTER": 75.845, "MEAN_ANOMALY": 285.6708, "EPHEMERIS_TYPE": 0, "CLASSIFICATION_TYPE": "U", "NORAD_CAT_ID": 35062, "ELEMENT_SET_NO": 999, "REV_AT_EPOCH": 85615, "BSTAR": 0.0011493, "MEAN_MOTION_DOT": 2.786e-05, "MEAN_MOTION_DDOT": 0}, "tle": {"line1": "1 35062U 93036AHR 25354.91907757  .00002786  00000+0  11493-2 0  9993", "line2": "2 35062  74.0793  78.5797 0126453  75.8450 285.6708 14.22993492856157"}}, "geometry": {"type": "Point", "coordinates": [-120.63506214469969, 43.140655105722985]}}, {"type": "Feature", "properties": {"norad_id": 35065, "name": "COSMOS 2251 DEB", "group": "cosmos-2251-debris", "lat": -57.04060188474981, "lon": 148.98467572808835, "alt_km": 732.0376372209776, "timestamp": "2025-12-22T23:36:21.112671+00:00", "meta": {"OBJECT_NAME": "COSMOS 2251 DEB", "OBJECT_ID": "1993-036AHU", "EPOCH": "2025-12-19T06:12:25.656192", "MEAN_MOTION": 14.4574331, "ECCENTRICITY": 0.0020018, "INCLINATION": 74.0185, "RA_OF_ASC_NODE": 182.1668, "ARG_OF_PERICENTER": 306.5523, "MEAN_ANOMALY": 53.3791, "EPHEMERIS_TYPE": 0, "CLASSIFICATION_TYPE": "U", "NORAD_CAT_ID": 35065, "ELEMENT_SET_NO": 999, "REV_AT_EPOCH": 68445, "BSTAR": 0.00028971, "MEAN_MOTION_DOT": 1.002e-05, "MEAN_MOTION_DDOT": 0}, "tle": {"line1": "1 35065U 93036AHU 25353.25863028  .00001002  00000+0  28971-3 0  9994", "line2": "2 35065  74.0185 182.1668 0020018 306.5523  53.3791 14.45743310684450"}}, "geometry": {"type": "Point", "coordinates": [148.98467572808835, -57.04060188474981]}}, {"type": "Feature", "properties": {"norad_id": 35071, "name": "COSMOS 2251 DEB", "group": "cosmos-2251-debris", "lat": 47.8139172684276, "lon": -46.17173569824657, "alt_km": 545.3345099424514, "timestamp": "2025-12-22T23:36:21.112681+00:00", "meta": {"OBJECT_NAME": "COSMOS 2251 DEB", "OBJECT_ID": "1993-036AJA", "EPOCH": "2025-12-15T18:34:31.974816", "MEAN_MOTION": 15.0351885, "ECCENTRICITY": 0.00682233, "INCLINATION": 73.9308, "RA_OF_ASC_NODE": 167.1964, "ARG_OF_PERICENTER": 62.71, "MEAN_ANOMALY": 298.1014, "EPHEMERIS_TYPE": 0, "CLASSIFICATION_TYPE": "U", "NORAD_CAT_ID": 35071, "ELEMENT_SET_NO": 999, "REV_AT_EPOCH": 67582, "BSTAR": 0.00048026378, "MEAN_MOTION_DOT": 6.858e-05, "MEAN_MOTION_DDOT": 0}, "tle": {"line1": "1 35071U 93036AJA 25349.77398119  .00006858  00000+0  48026-3 0  9994", "line2": "2 35071  73.9308 167.1964 0068223  62.7100 298.1014 15.03518850675828"}}, "geometry": {"type": "Point", "coordinates": [-46.17173569824657, 47.8139172684276]}}, {"type": "Feature", "properties": {"norad_id": 35073, "name": "COSMOS 2251 DEB", "group": "cosmos-2251-debris", "lat": 36.36994392953663, "lon": 117.48206495123702, "alt_km": 560.1016227493456, "timestamp": "2025-12-22T23:36:21.112691+00:00", "meta": {"OBJECT_NAME": "COSMOS 2251 DEB", "OBJECT_ID": "1993-036AJC", "EPOCH": "2025-12-21T14:59:25.763136", "MEAN_MOTION": 15.01208163, "ECCENTRICITY": 0.0011308, "INCLINATION": 74.0017, "RA_OF_ASC_NODE": 312.4522, "ARG_OF_PERICENTER": 54.373, "MEAN_ANOMALY": 305.8509, "EPHEMERIS_TYPE": 0, "CLASSIFICATION_TYPE": "U", "NORAD_CAT_ID": 35073, "ELEMENT_SET_NO": 999, "REV_AT_EPOCH": 67612, "BSTAR": 0.0026084, "MEAN_MOTION_DOT": 0.00033655, "MEAN_MOTION_DDOT": 0}, "tle": {"line1": "1 35073U 93036AJC 25355.62460374  .00033655  00000+0  26084-2 0  9994", "line2": "2 35073  74.0017 312.4522 0011308  54.3730 305.8509 15.01208163676122"}}, "geometry": {"type": "Point", "coordinates": [117.48206495123702, 36.36994392953663]}}, {"type": "Feature", "properties": {"norad_id": 35284, "name": "COSMOS 2251 DEB", "group": "cosmos-2251-debris", "lat": 71.43013087414822, "lon": -56.07818098265187, "alt_km": 762.8995760976431, "timestamp": "2025-12-22T23:36:21.112701+00:00", "meta": {"OBJECT_NAME": "COSMOS 2251 DEB", "OBJECT_ID": "1993-036AJN", "EPOCH": "2025-12-20T11:57:49.053888", "MEAN_MOTION": 14.38325797, "ECCENTRICITY": 0.00170776, "INCLINATION": 74.0488, "RA_OF_ASC_NODE": 250.1381, "ARG_OF_PERICENTER": 325.4276, "MEAN_ANOMALY": 212.2402, "EPHEMERIS_TYPE": 0, "CLASSIFICATION_TYPE": "U", "NORAD_CAT_ID": 35284, "ELEMENT_SET_NO": 999, "REV_AT_EPOCH": 65637, "BSTAR": 0.00012056337, "MEAN_MOTION_DOT": 3.41e-06, "MEAN_MOTION_DDOT": 0}, "tle": {"line1": "1 35284U 93036AJN 25354.49848442  .00000341  00000+0  12056-3 0  9999", "line2": "2 35284  74.0488 250.1381 0017077 325.4276 212.2402 14.38325797656375"}}, "geometry": {"type": "Point", "coordinates": [-56.07818098265187, 71.43013087414822]}}, {"type": "Feature", "properties": {"norad_id": 35287, "name": "COSMOS 2251 DEB", "group": "cosmos-2251-debris", "lat": -4.233550345685541, "lon": 78.52749654383855, "alt_km": 786.1737466281702, "timestamp": "2025-12-22T23:36:21.112712+00:00", "meta": {"OBJECT_NAME": "COSMOS 2251 DEB", "OBJECT_ID": "1993-036AJR", "EPOCH": "2025-12-22T11:53:54.676608", "MEAN_MOTION": 14.36384319, "ECCENTRICITY": 0.00179964, "INCLINATION": 74.0302, "RA_OF_ASC_NODE": 258.2089, "ARG_OF_PERICENTER": 352.7565, "MEAN_ANOMALY": 190.154, "EPHEMERIS_TYPE": 0, "CLASSIFICATION_TYPE": "U", "NORAD_CAT_ID": 35287, "ELEMENT_SET_NO": 999, "REV_AT_EPOCH": 87032, "BSTAR": 0.00012587961, "MEAN_MOTION_DOT": 3.43e-06, "MEAN_MOTION_DDOT": 0}, "tle": {"line1": "1 35287U 93036AJR 25356.49577172  .00000343  00000+0  12588-3 0  9995", "line2": "2 35287  74.0302 258.2089 0017996 352.7565 190.1540 14.36384319870324"}}, "geometry": {"type": "Point", "coordinates": [78.52749654383855, -4.233550345685541]}}, {"type": "Feature", "properties": {"norad_id": 35288, "name": "COSMOS 2251 DEB", "group": "cosmos-2251-debris", "lat": -30.183918972759198, "lon": -14.290351273992846, "alt_km": 686.172613447513, "timestamp": "2025-12-22T23:36:21.112722+00:00", "meta": {"OBJECT_NAME": "COSMOS 2251 DEB", "OBJECT_ID": "1993-036AJS", "EPOCH": "2025-12-21T10:04:09.683328", "MEAN_MOTION": 14.65541798, "ECCENTRICITY": 0.00391307, "INCLINATION": 73.9498, "RA_OF_ASC_NODE": 358.3745, "ARG_OF_PERICENTER": 230.729, "MEAN_ANOMALY": 129.0405, "EPHEMERIS_TYPE": 0, "CLASSIFICATION_TYPE": "U", "NORAD_CAT_ID": 35288, "ELEMENT_SET_NO": 999, "REV_AT_EPOCH": 88005, "BSTAR": 0.00079112613, "MEAN_MOTION_DOT": 4.31e-05, "MEAN_MOTION_DDOT": 0}, "tle": {"line1": "1 35288U 93036AJS 25355.41955652  .00004310  00000+0  79113-3 0  9995", "line2": "2 35288  73.9498 358.3745 0039130 230.7290 129.0405 14.65541798880054"}}, "geometry": {"type": "Point", "coordinates": [-14.290351273992846, -30.183918972759198]}}]}